NORAD_CAT_ID,OBJECT_NAME,OBJECT_TYPE,EPOCH,MEAN_MOTION,ECCENTRICITY,INCLINATION,RA_OF_ASC_NODE,ARG_OF_PERICENTER,MEAN_ANOMALY,BSTAR,MEAN_MOTION_DOT,MEAN_MOTION_DDOT,TLE_LINE0,TLE_LINE1,TLE_LINE2,SEMIMAJOR_AXIS,PERIOD,APOGEE,PERIGEE,DECAYED
52114.0,STARLINK-3737,PAYLOAD,2023-09-24 22:15:06,15.08843016,0.000145,53.2166,144.8446,85.038,275.0777,5.3919e-05,5.7e-06,0.0,0 STARLINK-3737,1 52114U 22029AC  23267.92715291  .00000570  00000-0  53919-4 0  9997,2 52114  53.2166 144.8446 0001450  85.0380 275.0777 15.08843016 85401,6917.871,95.437,540.739,538.733,0.0
52114.0,STARLINK-3737,PAYLOAD,2023-09-25 09:22:47,15.08849658,0.0001259,53.2157,142.7649,96.6353,263.4783,0.00031183,4.68e-05,0.0,0 STARLINK-3737,1 52114U 22029AC  23268.39083096  .00004680  00000-0  31183-3 0  9994,2 52114  53.2157 142.7649 0001259  96.6353 263.4783 15.08849658 85471,6917.851,95.437,540.587,538.845,0.0
52114.0,STARLINK-3737,PAYLOAD,2023-09-25 22:05:52,15.08851001,0.0001442,53.2159,140.3848,105.8549,254.2602,0.00027159,4.038e-05,0.0,0 STARLINK-3737,1 52114U 22029AC  23268.92075164  .00004038  00000-0  27159-3 0  9995,2 52114  53.2159 140.3848 0001442 105.8549 254.2602 15.08851001 85554,6917.847,95.437,540.709,538.714,0.0
52114.0,STARLINK-3737,PAYLOAD,2023-09-26 01:16:39,15.08853729,0.0001534,53.2163,139.7881,113.0462,247.0692,0.00031207,4.684e-05,0.0,0 STARLINK-3737,1 52114U 22029AC  23269.05322935  .00004684  00000-0  31207-3 0  9997,2 52114  53.2163 139.7881 0001534 113.0462 247.0692 15.08853729 85586,6917.838,95.437,540.765,538.642,0.0
52114.0,STARLINK-3737,PAYLOAD,2023-09-26 20:21:17,15.08834379,0.0001524,53.2159,136.2215,106.0855,254.0305,-6.1173e-06,-3.85e-06,0.0,0 STARLINK-3737,1 52114U 22029AC  23269.84812054 -.00000385  00000-0 -61173-5 0  9993,2 52114  53.2159 136.2215 0001524 106.0855 254.0305 15.08834379 85692,6917.898,95.438,540.817,538.708,0.0
52114.0,STARLINK-3737,PAYLOAD,2023-09-27 01:07:27,15.08834986,0.0001534,53.2164,135.3287,106.018,254.0981,2.1799e-05,5.9e-07,0.0,0 STARLINK-3737,1 52114U 22029AC  23270.04684114  .00000059  00000-0  21799-4 0  9996,2 52114  53.2164 135.3287 0001534 106.0180 254.0981 15.08834986 85738,6917.896,95.438,540.822,538.7,0.0
52114.0,STARLINK-3737,PAYLOAD,2023-09-27 23:22:51,15.08837213,0.0001489,53.2163,131.1656,104.2041,255.9116,0.00013088,1.795e-05,0.0,0 STARLINK-3737,1 52114U 22029AC  23270.97420404  .00001795  00000-0  13088-3 0  9997,2 52114  53.2163 131.1656 0001489 104.2041 255.9116 15.08837213 85866,6917.889,95.438,540.784,538.724,0.0
52114.0,STARLINK-3737,PAYLOAD,2023-09-28 18:27:29,15.0884252,0.0001362,53.2167,127.5996,101.4507,258.6638,0.00024133,3.555e-05,0.0,0 STARLINK-3737,1 52114U 22029AC  23271.76908622  .00003555  00000-0  24133-3 0  9997,2 52114  53.2167 127.5996 0001362 101.4507 258.6638 15.08842520 85992,6917.873,95.437,540.68,538.795,0.0
52114.0,STARLINK-3737,PAYLOAD,2023-09-28 20:02:51,15.0886319,0.0001596,53.2166,127.2985,119.9552,240.1598,0.00067704,0.0001051,0.0,0 STARLINK-3737,1 52114U 22029AC  23271.83531946  .00010510  00000-0  67704-3 0  9996,2 52114  53.2166 127.2985 0001596 119.9552 240.1598 15.08863190 85996,6917.81,95.436,540.779,538.57,0.0
52114.0,STARLINK-3737,PAYLOAD,2023-09-29 00:49:00,15.08866827,0.0001541,53.2165,126.4063,117.7289,242.386,0.00066368,0.00010298,0.0,0 STARLINK-3737,1 52114U 22029AC  23272.03403583  .00010298  00000-0  66368-3 0  9992,2 52114  53.2165 126.4063 0001541 117.7289 242.3860 15.08866827 86038,6917.798,95.436,540.729,538.597,0.0
52114.0,STARLINK-3737,PAYLOAD,2023-09-29 18:18:15,15.08838378,0.0001331,53.2161,123.1408,80.0894,280.0249,-4.6636e-05,-1.03e-05,0.0,0 STARLINK-3737,1 52114U 22029AC  23272.76268435 -.00001030  00000-0 -46636-4 0  9990,2 52114  53.2161 123.1408 0001331  80.0894 280.0249 15.08838378 86144,6917.885,95.438,540.671,538.83,0.0
52114.0,STARLINK-3737,PAYLOAD,2023-09-29 19:53:39,15.08838567,0.0001405,53.2163,122.8436,75.498,284.6168,-3.7068e-05,-8.78e-06,0.0,0 STARLINK-3737,1 52114U 22029AC  23272.82892468 -.00000878  00000-0 -37068-4 0  9994,2 52114  53.2163 122.8436 0001405  75.4980 284.6168 15.08838567 86149,6917.885,95.438,540.722,538.778,0.0
52114.0,STARLINK-3737,PAYLOAD,2023-09-30 22:55:12,15.08842352,0.0001591,53.2159,117.7835,105.5443,254.5725,-0.00014336,-2.569e-05,0.0,0 STARLINK-3737,1 52114U 22029AC  23273.95500401 -.00002569  00000-0 -14336-3 0  9993,2 52114  53.2159 117.7835 0001591 105.5443 254.5725 15.08842352 86327,6917.873,95.437,540.839,538.638,0.0
52114.0,STARLINK-3737,PAYLOAD,2023-10-01 13:13:40,15.08840552,0.0001554,53.2156,115.1082,84.5706,275.5463,0.0001583,2.232e-05,0.0,0 STARLINK-3737,1 52114U 22029AC  23274.55116671  .00002232  00000-0  15830-3 0  9997,2 52114  53.2156 115.1082 0001554  84.5706 275.5463 15.08840552 86408,6917.879,95.438,540.819,538.669,0.0
52114.0,STARLINK-3737,PAYLOAD,2023-10-01 21:10:36,15.08849735,0.0001429,53.2154,113.6224,83.9332,276.1823,0.00025063,3.704e-05,0.0,0 STARLINK-3737,1 52114U 22029AC  23274.88236188  .00003704  00000-0  25063-3 0  9993,2 52114  53.2154 113.6224 0001429  83.9332 276.1823 15.08849735 86450,6917.851,95.437,540.704,538.727,0.0
52114.0,STARLINK-3737,PAYLOAD,2023-10-02 06:42:54,15.08846504,0.0001331,53.2155,111.8382,88.5609,271.5535,0.00018068,2.589e-05,0.0,0 STARLINK-3737,1 52114U 22029AC  23275.27980295  .00002589  00000-0  18068-3 0  9999,2 52114  53.2155 111.8382 0001331  88.5609 271.5535 15.08846504 86524,6917.861,95.437,540.646,538.805,0.0
52114.0,STARLINK-3737,PAYLOAD,2023-10-02 19:26:00,15.08843077,0.0001499,53.2165,109.46,81.9581,278.1581,0.00010886,1.445e-05,0.0,0 STARLINK-3737,1 52114U 22029AC  23275.80972550  .00001445  00000-0  10886-3 0  9993,2 52114  53.2165 109.4600 0001499  81.9581 278.1581 15.08843077 86607,6917.871,95.437,540.773,538.699,0.0
52114.0,STARLINK-3737,PAYLOAD,2023-10-03 06:33:42,15.08839811,0.0001389,53.2155,107.3777,89.843,270.2722,4.8888e-05,4.9e-06,0.0,0 STARLINK-3737,1 52114U 22029AC  23276.27340704  .00000490  00000-0  48888-4 0  9998,2 52114  53.2155 107.3777 0001389  89.8430 270.2722 15.08839811 86663,6917.881,95.438,540.707,538.785,0.0
52114.0,STARLINK-3737,PAYLOAD,2023-10-03 19:16:47,15.08841769,0.0001337,53.2152,104.9984,89.8266,270.2879,3.7741e-05,3.13e-06,0.0,0 STARLINK-3737,1 52114U 22029AC  23276.80332628  .00000313  00000-0  37741-4 0  9993,2 52114  53.2152 104.9984 0001337  89.8266 270.2879 15.08841769 86740,6917.875,95.437,540.665,538.815,0.0
52114.0,STARLINK-3737,PAYLOAD,2023-10-03 22:27:33,15.08843927,0.0001367,53.2153,104.4032,92.1478,267.9671,5.9262e-05,6.55e-06,0.0,0 STARLINK-3737,1 52114U 22029AC  23276.93580508  .00000655  00000-0  59262-4 0  9990,2 52114  53.2153 104.4032 0001367  92.1478 267.9671 15.08843927 86779,6917.868,95.437,540.679,538.788,0.0
52114.0,STARLINK-3737,PAYLOAD,2023-10-04 12:46:01,15.08844768,0.0001397,53.2154,101.7263,94.5009,265.6142,0.00019641,2.84e-05,0.0,0 STARLINK-3737,1 52114U 22029AC  23277.53196457  .00002840  00000-0  19641-3 0  9997,2 52114  53.2154 101.7263 0001397  94.5009 265.6142 15.08844768 86856,6917.866,95.437,540.697,538.764,0.0
52114.0,STARLINK-3737,PAYLOAD,2023-10-04 19:07:33,15.08852506,0.0001304,53.2159,100.5373,85.9127,274.2014,0.00031459,4.724e-05,0.0,0 STARLINK-3737,1 52114U 22029AC  23277.79692058  .00004724  00000-0  31459-3 0  9997,2 52114  53.2159 100.5373 0001304  85.9127 274.2014 15.08852506 86890,6917.842,95.437,540.609,538.805,0.0
52114.0,STARLINK-3737,PAYLOAD,2023-10-04 22:18:19,15.08856648,0.000126,53.216,99.9424,82.9301,277.1834,0.00030519,4.575e-05,0.0,0 STARLINK-3737,1 52114U 22029AC  23277.92939795  .00004575  00000-0  30519-3 0  9994,2 52114  53.2160  99.9424 0001260  82.9301 277.1834 15.08856648 86929,6917.83,95.437,540.566,538.823,0.0
52114.0,STARLINK-3737,PAYLOAD,2023-10-05 11:01:25,15.0884194,0.0001789,53.2159,97.5626,88.3285,271.7912,0.00011766,1.585e-05,0.0,0 STARLINK-3737,1 52114U 22029AC  23278.45932622  .00001585  00000-0  11766-3 0  9996,2 52114  53.2159  97.5626 0001789  88.3285 271.7912 15.08841940 87008,6917.874,95.437,540.977,538.502,0.0
52114.0,STARLINK-3737,PAYLOAD,2023-10-05 12:36:48,15.08841678,0.0001574,53.2159,97.2655,101.6391,258.4778,0.00010273,1.347e-05,0.0,0 STARLINK-3737,1 52114U 22029AC  23278.52556542  .00001347  00000-0  10273-3 0  9995,2 52114  53.2159  97.2655 0001574 101.6391 258.4778 15.08841678 87006,6917.875,95.437,540.829,538.651,0.0
52114.0,STARLINK-3737,PAYLOAD,2023-10-05 18:58:21,15.08847667,0.0001294,53.2164,96.0767,86.5189,273.5952,0.0002638,3.914e-05,0.0,0 STARLINK-3737,1 52114U 22029AC  23278.79052333  .00003914  00000-0  26380-3 0  9991,2 52114  53.2164  96.0767 0001294  86.5189 273.5952 15.08847667 87048,6917.857,95.437,540.617,538.827,0.0
52114.0,STARLINK-3737,PAYLOAD,2023-10-06 12:27:36,15.08835471,0.0001397,53.2167,92.8073,91.3168,268.7984,0.00012978,1.778e-05,0.0,0 STARLINK-3737,1 52114U 22029AC  23279.51916891  .00001778  00000-0  12978-3 0  9994,2 52114  53.2167  92.8073 0001397  91.3168 268.7984 15.08835471 87153,6917.894,95.438,540.726,538.793,0.0
52114.0,STARLINK-3737,PAYLOAD,2023-10-06 18:49:08,15.08837165,0.0001458,53.2169,91.6182,91.7053,268.4106,0.00012417,1.689e-05,0.0,0 STARLINK-3737,1 52114U 22029AC  23279.78412967  .00001689  00000-0  12417-3 0  9997,2 52114  53.2169  91.6182 0001458  91.7053 268.4106 15.08837165 87209,6917.889,95.438,540.763,538.745,0.0
52114.0,STARLINK-3737,PAYLOAD,2023-10-07 12:18:23,15.08841392,0.0001384,53.2174,88.3472,91.2791,268.836,0.00019042,2.744e-05,0.0,0 STARLINK-3737,1 52114U 22029AC  23280.51276997  .00002744  00000-0  19042-3 0  9995,2 52114  53.2174  88.3472 0001384  91.2791 268.8360 15.08841392 87306,6917.876,95.437,540.699,538.784,0.0
52114.0,STARLINK-3737,PAYLOAD,2023-10-07 18:39:55,15.08848344,0.0001374,53.2173,87.1578,91.1274,268.9876,0.00030078,4.503e-05,0.0,0 STARLINK-3737,1 52114U 22029AC  23280.77772705  .00004503  00000-0  30078-3 0  9998,2 52114  53.2173  87.1578 0001374  91.1274 268.9876 15.08848344 87344,6917.855,95.437,540.67,538.769,0.0
